[{"OBJECT_NAME":"DONGPO 03","OBJECT_ID":"2022-098G","EPOCH":"2026-03-09T23:33:34.890048","MEAN_MOTION":15.70958192,"ECCENTRICITY":0.00010558,"INCLINATION":97.5452,"RA_OF_ASC_NODE":197.1326,"ARG_OF_PERICENTER":261.4023,"MEAN_ANOMALY":98.7119,"EPHEMERIS_TYPE":0,"CLASSIFICATION_TYPE":"U","NORAD_CAT_ID":53450,"ELEMENT_SET_NO":999,"REV_AT_EPOCH":19946,"BSTAR":0.0010143925,"MEAN_MOTION_DOT":0.00128253,"MEAN_MOTION_DDOT":0},{"OBJECT_NAME":"STARLINK-11348 [DTC]","OBJECT_ID":"2024-195H","EPOCH":"2026-03-09T04:14:18.966624","MEAN_MOTION":15.69695907,"ECCENTRICITY":0.00011971,"INCLINATION":53.1586,"RA_OF_ASC_NODE":28.7427,"ARG_OF_PERICENTER":83.6733,"MEAN_ANOMALY":276.4421,"EPHEMERIS_TYPE":0,"CLASSIFICATION_TYPE":"U","NORAD_CAT_ID":61694,"ELEMENT_SET_NO":999,"REV_AT_EPOCH":7895,"BSTAR":-1.199141e-5,"MEAN_MOTION_DOT":-2.04e-5,"MEAN_MOTION_DDOT":0}]
